GLOBALSTAR M084         
1 38040U 11080A   23347.16842956 -.00000084  00000+0  11156-3 0  9994
2 38040  52.0022 289.0220 0000464  30.2257  73.8237 12.62268982552956
GLOBALSTAR M080         
1 38041U 11080B   23347.05777907 -.00000095  00000+0  48323-4 0  9995
2 38041  52.0074 290.7721 0000259  27.5392  53.3291 12.62267124553063
GLOBALSTAR M082         
1 38042U 11080C   23347.86110427 -.00000064  00000+0  22135-3 0  9991
2 38042  52.0068 243.7131 0001543  66.1947   8.1299 12.62264147554049
GLOBALSTAR M092         
1 38043U 11080D   23347.28669876 -.00000098  00000+0  31193-4 0  9997
2 38043  52.0109 335.8085 0000271 351.3959 111.0655 12.62247565552252
GLOBALSTAR M090         
1 38044U 11080E   23347.02251302 -.00000061  00000+0  23848-3 0  9998
2 38044  51.9880 240.7851 0001227  68.1930  34.2146 12.62264551553881
GLOBALSTAR M086         
1 38045U 11080F   23347.05007924 -.00000069  00000+0  19522-3 0  9993
2 38045  51.9890 241.2108 0001132 121.1300 345.6613 12.62265458553830
GLOBALSTAR M097         
1 39072U 13005A   23347.76555084 -.00000112  00000+0 -45373-4 0  9990
2 39072  52.0020 153.0156 0001370 103.2013 256.9006 12.62273613501258
GLOBALSTAR M093         
1 39073U 13005B   23347.73901947 -.00000118  00000+0 -80924-4 0  9998
2 39073  51.9786 147.2813 0001533 109.3977 250.7055 12.62278230501243
